LEO 1 (LEO VANTAGE 1)   
1 43113U 18004C   26068.70632107  .00005709  00000+0  39603-3 0  9997
2 43113  99.2469 334.0284 0352942  24.8540 336.9207 14.67184901422891
KUIPER-00218            
1 67780U 26030S   26068.64042744  .00022104  00000+0  64584-3 0  9990
2 67780  51.8829 219.4934 0006939  50.9637 309.1966 15.35202151  5084
